XW-2F
1 40910U 15049M   16224.25338042  .00002139  00000-0  12011-3 0  9998
2 40910  97.4538 230.2545 0015380 198.2886 161.7795 15.14302191 49233
XW-2B
1 40911U 15049N   16224.36968755  .00001451  00000-0  83883-4 0  9993
2 40911  97.4556 230.3263 0014235 199.2024 160.8673 15.13765855 49251
DCBB
1 40912U 15049P   16224.40091056  .00001968  00000-0  10491-3 0  9997
2 40912  97.4527 231.3315 0015657 193.5386 272.3980 15.16264994 49325
TW-1C
1 40926U 15051B   16224.33937589  .00007958  00000-0  21950-3 0  9994
2 40926  97.2704 260.6730 0012862 204.6153 211.1228 15.37286649 49232
TW-1A
1 40928U 15051D   16224.28011841  .00003391  00000-0  10641-3 0  9996
2 40928  97.2659 259.4642 0012580 224.5259 202.2418 15.33653416 49166
IO-86
1 40931U 15052B   16223.65914673  .00000740  00000-0  14243-4 0  9994
2 40931   6.0005 286.7967 0012573 170.1861 189.8547 14.76473507 46991
GomX-3
1 40949U 98067HA  16224.18154524  .00075815  00000-0  28995-3 0  9993
2 40949  51.6279 108.3156 0002635 112.0530 248.0754 15.86777409 48770
LQSat
1 40958U 15057A   16224.33881417  .00000086  00000-0  21295-4 0  9991
2 40958  98.0112 298.4983 0018128 342.2182  17.8393 14.72887093 45508
AO-85
1 40967U 15058D   16223.22560973  .00000053  00000-0  24724-4 0 02199
2 40967 064.7792 081.9721 0197768 188.0468 171.7458 14.75077787031240
ATHENOXAT-1
1 41168U 15077C   16224.32533624  .00002704  00000-0  12096-3 0  9997
2 41168  14.9897 270.9331 0012970  46.4885  35.4608 15.10190644 36106
ChubuSat-2
1 41338U 16012B   16223.57454460  .00000628  00000-0  43048-4 0  9997
2 41338  31.0032 284.5813 0014014 225.5545 134.3944 14.99441771 26327
ChubuSat-3
1 41339U 16012C   16224.34604850  .00000546  00000-0  36299-4 0  9993
2 41339  31.0099 279.3583 0014015 239.3399 120.5847 14.99669847 26413
Horyu-4
1 41340U 16012D   16224.16887666  .00000972  00000-0  69202-4 0  9996
2 41340  31.0051 279.7724 0014324 242.9498 116.9676 15.00111507 26414
OUFTI-1
1 41458U 16025C   16223.93916288  .00001405  00000-0  83286-4 0  9997
2 41458 098.2021 237.5581 0176082 244.7988 113.4892 15.01328599016001
e-st at r-II
1 41459U 16025D   16224.27286337  .00001229  00000-0  73606-4 0  9990
2 41459  98.2024 237.9077 0175943 243.6873 114.6189 15.01298850 16047
AAUSAT4
1 41460U 16025E   16224.39530625  .00003216  00000-0  18379-3 0  9990
2 41460  98.2026 238.0486 0173988 243.1810 115.1525 15.01607240 16069
MinXSS
1 41474U 98067HU  16224.26555278  .00038307  00000-0  47858-3 0  9991
2 41474  51.6411 141.4544 0002149  37.6265 322.4878 15.59453303 13521
CADRE
1 41475U 98067HV  16224.33978562  .00050878  00000-0  58217-3 0  9993
2 41475  51.6394 140.4422 0002878  71.2462 288.8844 15.61622355 13546
NODES 1
1 41477U 98067HX  16224.23198785  .00024308  00000-0  31874-3 0  9994
2 41477  51.6395 141.9749 0001660  26.9954 333.1125 15.58415769 13426
NODES 2
1 41478U 98067HY  16224.23383481  .00023921  00000-0  31436-3 0  9998
2 41478  51.6394 141.9862 0001583  29.5279 330.5802 15.58366522 13420
NuSat1-LUSEX
1 41557U 16033B   16224.27375328  .00002212  00000-0  89861-4 0  9990
2 41557  97.4959 297.5272 0015785  25.6830  59.7989 15.25558173 11158
NuSat2
1 41558U 16033C   16224.28068601  .00002374  00000-0  96612-4 0  9996
2 41558  97.4976 297.5391 0015232  23.1979  63.4045 15.25419939 11155
Lapan A3
1 41603U 16040E   16224.40774483  .00000490  00000-0  26613-4 0  9992
2 41603  97.5068 283.2657 0015382  74.9322 340.6410 15.19086081  7622
Swayam
1 41607U 16040J   16223.87260810  .00003197  00000-0  15501-3 0  9990
2 41607 097.5045 282.7123 0016669 081.3432 278.9690 15.19131597007464
